[{"OBJECT_NAME":"STARLINK-31138","OBJECT_ID":"2024-012V","EPOCH":"2026-03-09T07:01:41.885760","MEAN_MOTION":15.27617781,"ECCENTRICITY":4.278e-5,"INCLINATION":42.9963,"RA_OF_ASC_NODE":167.6203,"ARG_OF_PERICENTER":78.5636,"MEAN_ANOMALY":281.5264,"EPHEMERIS_TYPE":0,"CLASSIFICATION_TYPE":"U","NORAD_CAT_ID":58806,"ELEMENT_SET_NO":999,"REV_AT_EPOCH":12117,"BSTAR":-0.00027713333,"MEAN_MOTION_DOT":-7.888e-5,"MEAN_MOTION_DDOT":0},{"OBJECT_NAME":"XCUBE-1","OBJECT_ID":"2024-247Z","EPOCH":"2026-03-09T11:35:28.885344","MEAN_MOTION":15.27910558,"ECCENTRICITY":0.00052355,"INCLINATION":44.9938,"RA_OF_ASC_NODE":117.7807,"ARG_OF_PERICENTER":331.1499,"MEAN_ANOMALY":28.9094,"EPHEMERIS_TYPE":0,"CLASSIFICATION_TYPE":"U","NORAD_CAT_ID":62400,"ELEMENT_SET_NO":999,"REV_AT_EPOCH":6770,"BSTAR":0.00036224252,"MEAN_MOTION_DOT":9.773e-5,"MEAN_MOTION_DDOT":0}]
